[{"OBJECT_NAME":"STARLINK-4692","OBJECT_ID":"2022-104R","EPOCH":"2026-03-09T18:18:04.244832","MEAN_MOTION":15.08840597,"ECCENTRICITY":0.0001328,"INCLINATION":53.2164,"RA_OF_ASC_NODE":238.9696,"ARG_OF_PERICENTER":85.9197,"MEAN_ANOMALY":274.1947,"EPHEMERIS_TYPE":0,"CLASSIFICATION_TYPE":"U","NORAD_CAT_ID":53603,"ELEMENT_SET_NO":999,"REV_AT_EPOCH":19569,"BSTAR":-9.6908462e-5,"MEAN_MOTION_DOT":-1.83e-5,"MEAN_MOTION_DDOT":0},{"OBJECT_NAME":"CZ-6A DEB","OBJECT_ID":"2022-151AJB","EPOCH":"2026-02-27T14:06:27.470880","MEAN_MOTION":15.13235807,"ECCENTRICITY":0.00651829,"INCLINATION":98.7617,"RA_OF_ASC_NODE":191.4844,"ARG_OF_PERICENTER":85.1472,"MEAN_ANOMALY":275.7194,"EPHEMERIS_TYPE":0,"CLASSIFICATION_TYPE":"U","NORAD_CAT_ID":58433,"ELEMENT_SET_NO":999,"REV_AT_EPOCH":15167,"BSTAR":0.0027921214,"MEAN_MOTION_DOT":0.00052525,"MEAN_MOTION_DDOT":0}]
